STARLINK-31414          
1 59418U 24064W   24111.58334491 -.01717214  00000+0 -25106-1 0  9998
2 59418  43.0001  16.4251 0002142 257.4943 110.2518 15.57812539  3624
STARLINK-31415          
1 59419U 24064X   24111.58334491 -.01529537  00000+0 -22594-1 0  9996
2 59419  43.0003  16.4198 0003133 251.4018 118.3697 15.57678269  3622
STARLINK-31466          
1 59420U 24064Y   24111.58334491 -.01716065  00000+0 -25094-1 0  9990
2 59420  43.0003  16.4153 0002220 261.2652 110.3755 15.57804646  3621
STARLINK-11087          
1 59421U 24065A   24111.61412008  .00157941  00000+0  11927-2 0  9997
2 59421  53.1583 255.3418 0000668  87.5009 272.6087 15.71475504  3313
STARLINK-11090          
1 59422U 24065B   24111.61156095  .00079385  00000+0  60870-3 0  9996
2 59422  53.1580 255.3273 0000654  77.6639 282.4453 15.71427009  3339
STARLINK-11093          
1 59423U 24065C   24111.60893447  .00178860  00000+0  13523-2 0  9995
2 59423  53.1579 255.3143 0001541  71.5531 288.5655 15.71376075  3320
STARLINK-11083          
1 59424U 24065D   24111.60627748  .00902309  00000+0  62413-2 0  9990
2 59424  53.1601 255.2984 0000434 186.8548 173.2465 15.71724677  3275
STARLINK-11085          
1 59425U 24065E   24111.60358142  .00949525  00000+0  64533-2 0  9996
2 59425  53.1613 255.2827 0000469 303.9912  56.1062 15.72026225  3277
STARLINK-11089          
1 59426U 24065F   24111.58334491 -.00849092  00000+0 -59918-2 0  9996
2 59426  53.1719 254.9980 0000723  58.4840  17.9381 15.75705329  3323
STARLINK-31757          
1 59427U 24065G   24111.58334491 -.01619605  00000+0 -38840-1 0  9993
2 59427  53.1595 256.3207 0001002  69.0572  68.6367 15.44125564  3336
STARLINK-31752          
1 59428U 24065H   24111.58334491  .00212792  00000+0  37450-2 0  9994
2 59428  53.1589 256.3012 0000832  87.4544  61.6972 15.49200261  3335
STARLINK-31773          
1 59429U 24065J   24111.58334491  .00128319  00000+0  22850-2 0  9994
2 59429  53.1596 256.2944 0001849  48.4288 102.7541 15.49215344  3335
STARLINK-31772          
1 59430U 24065K   24111.58334491  .00112005  00000+0  19991-2 0  9993
2 59430  53.1595 256.2901 0001698  33.1595 119.9853 15.49223938  3337
STARLINK-31613          
1 59431U 24065L   24111.58334491  .00125321  00000+0  22331-2 0  9991
2 59431  53.1596 256.2860 0001918  59.6931  95.4299 15.49209619  3337
STARLINK-31780          
1 59432U 24065M   24111.58334491  .00125271  00000+0  22326-2 0  9990
2 59432  53.1596 256.2821 0001883  41.5421 115.5530 15.49204853  3337
STARLINK-31740          
1 59433U 24065N   24111.58334491 -.02542418  00000+0 -54740-1 0  9995
2 59433  53.1595 256.2800 0001511  45.0565 113.1609 15.47674669  3335
STARLINK-31580          
1 59434U 24065P   24111.58334491  .00083747  00000+0  15003-2 0  9997
2 59434  53.1596 256.2742 0002088  35.0195 125.9368 15.49259397  3310
STARLINK-31696          
1 59435U 24065Q   24111.58334491  .00159479  00000+0  28265-2 0  9998
2 59435  53.1597 256.2703 0001672  40.7904 122.1406 15.49216370  3336
STARLINK-31700          
1 59436U 24065R   24111.58334491  .00110194  00000+0  19659-2 0  9997
2 59436  53.1597 256.2663 0001441  55.0764 109.8205 15.49245301  3334
STARLINK-31706          
1 59437U 24065S   24111.58334491  .00081554  00000+0  14669-2 0  9991
2 59437  53.1597 256.2617 0001221  82.4021  84.6304 15.49157639  3336
STARLINK-31711          
1 59438U 24065T   24111.58334491  .00117409  00000+0  20930-2 0  9999
2 59438  53.1597 256.2585 0001831  45.2478 123.5786 15.49233452  3336
STARLINK-31708          
1 59439U 24065U   24111.58334491  .00109179  00000+0  19480-2 0  9993
2 59439  53.1598 256.2505 0001070  60.8776 111.8749 15.49247178  3338
STARLINK-31682          
1 59440U 24065V   24111.60090355  .00977388  00000+0  63423-2 0  9997
2 59440  53.1586 255.2663 0001279  39.2042 320.9070 15.73057686  3338
STARLINK-31693          
1 59441U 24065W   24111.58334491  .00116559  00000+0  20785-2 0  9996
2 59441  53.1596 256.2468 0001022  88.7738  85.9669 15.49228937  3335
STARLINK-31617          
1 59455U 24068A   24111.58334491 -.00920418  00000+0 -55051-2 0  9997
2 59455  43.0032 357.1857 0002145 259.8763  94.0889 15.79316697  2879
STARLINK-31622          
1 59456U 24068B   24111.58334491 -.00931934  00000+0 -55737-2 0  9994
2 59456  43.0030 357.1753 0002167 260.7138  97.3062 15.79347742  2878
STARLINK-31319          
1 59457U 24068C   24111.58334491 -.00920073  00000+0 -54970-2 0  9995
2 59457  43.0031 357.1807 0002213 260.2079  95.6410 15.79338913  2879
STARLINK-31625          
1 59458U 24068D   24111.58334491 -.00938422  00000+0 -56140-2 0  9994
2 59458  43.0031 357.1700 0002173 261.9448  98.1693 15.79358935  2872
STARLINK-31631          
1 59459U 24068E   24111.58334491 -.00940594  00000+0 -56274-2 0  9996
2 59459  43.0029 357.1645 0002245 262.7980  99.4802 15.79362269  2879
STARLINK-31620          
1 59460U 24068F   24111.58334491 -.00949679  00000+0 -56869-2 0  9991
2 59460  43.0029 357.1589 0002184 260.1806 104.2931 15.79367200  2877
STARLINK-31482          
1 59461U 24068G   24111.58334491  .00636125  00000+0  18892-2 0  9993
2 59461  43.0024 356.9680 0004054 235.7308 204.8662 15.90174437  2863
STARLINK-31511          
1 59462U 24068H   24111.58334491 -.00977273  00000+0 -58672-2 0  9998
2 59462  43.0028 357.1422 0002184 261.9055 109.1083 15.79384269  2875
STARLINK-31364          
1 59463U 24068J   24111.58334491 -.00966120  00000+0 -57959-2 0  9995
2 59463  43.0029 357.1476 0002183 260.9410 107.9820 15.79371003  2876
STARLINK-31597          
1 59464U 24068K   24111.58334491 -.00985440  00000+0 -59219-2 0  9993
2 59464  43.0028 357.1365 0002201 263.1648 110.0804 15.79384936  2812
STARLINK-31621          
1 59465U 24068L   24111.58334491 -.00990838  00000+0 -59532-2 0  9999
2 59465  43.0029 357.1316 0002214 262.8423 112.3808 15.79403285  2875
STARLINK-31462          
1 59466U 24068M   24111.58334491 -.00883111  00000+0 -43069-2 0  9993
2 59466  43.0023 356.9039 0002068 260.5100 205.1436 15.83568634  2876
STARLINK-31592          
1 59467U 24068N   24111.58334491 -.01008544  00000+0 -60731-2 0  9999
2 59467  43.0027 357.1199 0002140 260.6900 119.0091 15.79402921  2872
STARLINK-31267          
1 59468U 24068P   24111.58334491 -.01013804  00000+0 -61111-2 0  9998
2 59468  43.0026 357.1141 0002077 262.9767 119.0181 15.79395254  2874
STARLINK-31381          
1 59469U 24068Q   24111.58334491 -.01022583  00000+0 -61636-2 0  9995
2 59469  43.0024 357.1092 0002148 261.3012 122.6236 15.79419378  2878
STARLINK-31546          
1 59470U 24068R   24111.58334491 -.01042754  00000+0 -61841-2 0  9997
2 59470  43.0025 357.1035 0002058 269.1609 117.0229 15.79413155  2873
STARLINK-31575          
1 59471U 24068S   24111.58334491 -.01051094  00000+0 -62363-2 0  9995
2 59471  43.0024 357.0981 0002069 266.0414 122.2457 15.79421933  2878
STARLINK-31375          
1 59472U 24068T   24111.58334491 -.01072279  00000+0 -63723-2 0  9995
2 59472  43.0023 357.0873 0002202 263.4413 129.1725 15.79432301  2872
STARLINK-31610          
1 59473U 24068U   24111.58334491 -.01064697  00000+0 -63245-2 0  9990
2 59473  43.0023 357.0926 0002160 262.8783 127.6171 15.79425355  2877
STARLINK-31581          
1 59474U 24068V   24111.58334491 -.01081742  00000+0 -64363-2 0  9993
2 59474  43.0024 357.0818 0002206 264.6013 130.2879 15.79427075  2872
STARLINK-31566          
1 59475U 24068W   24111.58334491 -.01087049  00000+0 -64657-2 0  9996
2 59475  43.0023 357.0769 0002157 262.8866 133.9559 15.79446719  2879
STARLINK-31515          
1 59476U 24068X   24111.58334491 -.01095670  00000+0 -65226-2 0  9999
2 59476  43.0024 357.0713 0002158 263.3853 135.6534 15.79447189  2877
STARLINK-31531          
1 59477U 24068Y   24111.58334491 -.01103754  00000+0 -65753-2 0  9998
2 59477  43.0023 357.0658 0002141 262.7283 138.4703 15.79450270  2871
STARLINK-31753          
1 59484U 24071A   24111.58334491 -.00829431  00000+0 -32760-2 0  9998
2 59484  43.0029 317.2161 0002013 270.9290 164.3669 15.87741984  2355
STARLINK-31653          
1 59485U 24071B   24111.58334491 -.00832059  00000+0 -32796-2 0  9998
2 59485  43.0023 317.2133 0002127 272.7268 163.7406 15.87787971  2358
STARLINK-31733          
1 59486U 24071C   24111.58334491 -.00839339  00000+0 -33019-2 0  9996
2 59486  43.0023 317.2095 0001959 265.7555 172.1475 15.87844825  2351
STARLINK-31657          
1 59487U 24071D   24111.58334491 -.00860627  00000+0 -33585-2 0  9999
2 59487  43.0025 317.1953 0001894 265.6465 177.8406 15.88054128  2405
STARLINK-31754          
1 59488U 24071E   24111.58334491 -.00848192  00000+0 -33263-2 0  9996
2 59488  43.0016 317.2044 0002132 271.5867 168.5183 15.87925493  2406
STARLINK-31638          
1 59489U 24071F   24111.58334491 -.00856182  00000+0 -33488-2 0  9994
2 59489  43.0027 317.1990 0002066 267.8762 174.1117 15.87996789  2356
STARLINK-31670          
1 59490U 24071G   24111.58334491 -.01037082  00000+0 -39940-2 0  9996
2 59490  43.0024 317.1447 0001837 273.9592 189.3418 15.88721420  2357
STARLINK-31712          
1 59491U 24071H   24111.58334491 -.00861303  00000+0 -33518-2 0  9992
2 59491  43.0021 317.1914 0002160 275.1630 169.8150 15.88108125  2404
STARLINK-31684          
1 59492U 24071J   24111.58334491 -.00879148  00000+0 -34045-2 0  9995
2 59492  43.0018 317.1823 0002127 271.3936 177.2143 15.88246359  2351
STARLINK-31678          
1 59493U 24071K   24111.58334491 -.00884016  00000+0 -34135-2 0  9996
2 59493  43.0016 317.1774 0002007 273.5776 176.9649 15.88315807  2406
STARLINK-31744          
1 59494U 24071L   24111.58334491 -.00888607  00000+0 -34241-2 0  9995
2 59494  43.0017 317.1740 0002105 271.2847 180.5279 15.88366364  2352
STARLINK-31719          
1 59495U 24071M   24111.58334491 -.00830323  00000+0 -31836-2 0  9995
2 59495  43.0023 317.1686 0003177 264.1479 189.8095 15.88320987  2406
